{
  "norad_id": 68556,
  "name": "STARLINK-37144",
  "history": [
    {
      "epoch": "2026-04-09T20:00:01.999008Z",
      "apogee_km": 273.0930016006869,
      "perigee_km": 272.23770841783244,
      "latitude_deg": -31.499503551295927,
      "longitude_deg": 63.543781662652215,
      "height_km": 282.34318074145796,
      "semi_major_axis_km": 6650.802355009259,
      "eccentricity": 6.43e-05,
      "inclination_deg": 53.1588,
      "raan_deg": 228.7901,
      "arg_perigee_deg": 42.987,
      "mean_anomaly_deg": 276.5622,
      "mean_motion_rev_day": 16.00632752
    }
  ]
}