STARLINK-37144          
1 68556U 26070Q   26099.83335647 -.00960347  31086-3 -17601-2 0  9999
2 68556  53.1588 228.7901 0000643  42.9870 276.5622 16.00632752  2389
